NORAD_CAT_ID,OBJECT_NAME,OBJECT_TYPE,EPOCH,MEAN_MOTION,ECCENTRICITY,INCLINATION,RA_OF_ASC_NODE,ARG_OF_PERICENTER,MEAN_ANOMALY,BSTAR,MEAN_MOTION_DOT,MEAN_MOTION_DDOT,TLE_LINE0,TLE_LINE1,TLE_LINE2,SEMIMAJOR_AXIS,PERIOD,APOGEE,PERIGEE,DECAYED
49770.0,STARLINK-3191,PAYLOAD,2024-02-22 19:21:16,15.08847321,0.0001237,53.2157,247.5693,88.5788,271.5345,7.0125e-05,8.29e-06,0.0,0 STARLINK-3191,1 49770U 21115AY  24053.80643849  .00000829  00000-0  70125-4 0  9991,2 49770  53.2157 247.5693 0001237  88.5788 271.5345 15.08847321124187,6917.858,95.437,540.579,538.867,0.0
49770.0,STARLINK-3191,PAYLOAD,2024-02-23 12:50:31,15.08837416,0.0001333,53.2163,244.2956,97.5676,262.5468,5.4012e-05,5.72e-06,0.0,0 STARLINK-3191,1 49770U 21115AY  24054.53508484  .00000572  00000-0  54012-4 0  9999,2 49770  53.2163 244.2956 0001333  97.5676 262.5468 15.08837416124307,6917.888,95.438,540.675,538.831,0.0
49770.0,STARLINK-3191,PAYLOAD,2024-02-23 19:12:03,15.08836892,0.0001226,53.2154,243.1095,84.1825,275.9307,6.1704e-05,6.94e-06,0.0,0 STARLINK-3191,1 49770U 21115AY  24054.80004566  .00000694  00000-0  61704-4 0  9992,2 49770  53.2154 243.1095 0001226  84.1825 275.9307 15.08836892124338,6917.89,95.438,540.603,538.907,0.0
49770.0,STARLINK-3191,PAYLOAD,2024-02-24 12:41:18,15.08839059,0.0001214,53.2156,239.8397,82.7109,277.4021,1.3212e-05,-7.8e-07,0.0,0 STARLINK-3191,1 49770U 21115AY  24055.52868717 -.00000078  00000-0  13212-4 0  9996,2 49770  53.2156 239.8397 0001214  82.7109 277.4021 15.08839059124454,6917.883,95.438,540.588,538.908,0.0
49770.0,STARLINK-3191,PAYLOAD,2024-02-24 19:02:50,15.08842144,0.0001192,53.215,238.6474,81.7727,278.34,8.8765e-06,-1.47e-06,0.0,0 STARLINK-3191,1 49770U 21115AY  24055.79364549 -.00000147  00000-0  88765-5 0  9992,2 49770  53.2150 238.6474 0001192  81.7727 278.3400 15.08842144124495,6917.874,95.437,540.563,538.914,0.0
49770.0,STARLINK-3191,PAYLOAD,2024-02-25 04:35:09,15.08842686,0.000113,53.2141,236.8631,80.4739,279.638,8.1829e-05,1.015e-05,0.0,0 STARLINK-3191,1 49770U 21115AY  24056.19108284  .00001015  00000-0  81829-4 0  9996,2 49770  53.2141 236.8631 0001130  80.4739 279.6380 15.08842686124549,6917.872,95.437,540.519,538.955,0.0
49770.0,STARLINK-3191,PAYLOAD,2024-02-25 10:56:42,15.08840303,0.0001263,53.2159,235.6738,81.6382,278.4753,9.1784e-05,1.173e-05,0.0,0 STARLINK-3191,1 49770U 21115AY  24056.45604461  .00001173  00000-0  91784-4 0  9999,2 49770  53.2159 235.6738 0001263  81.6382 278.4753 15.08840303124597,6917.879,95.438,540.618,538.871,0.0
49770.0,STARLINK-3191,PAYLOAD,2024-02-25 18:53:37,15.08847645,0.0001239,53.2159,234.1877,82.0304,278.0828,0.00015548,2.188e-05,0.0,0 STARLINK-3191,1 49770U 21115AY  24056.78723815  .00002188  00000-0  15548-3 0  9990,2 49770  53.2159 234.1877 0001239  82.0304 278.0828 15.08847645124648,6917.857,95.437,540.579,538.865,0.0
49770.0,STARLINK-3191,PAYLOAD,2024-02-26 17:09:02,15.08836502,0.0001205,53.2151,230.0256,89.5407,270.5723,4.7955e-05,4.75e-06,0.0,0 STARLINK-3191,1 49770U 21115AY  24057.71460918  .00000475  00000-0  47955-4 0  9991,2 49770  53.2151 230.0256 0001205  89.5407 270.5723 15.08836502124770,6917.891,95.438,540.59,538.922,0.0
49770.0,STARLINK-3191,PAYLOAD,2024-02-27 10:38:16,15.0884004,0.0001319,53.2157,226.7548,90.2031,269.9112,-1.9742e-05,-6.02e-06,0.0,0 STARLINK-3191,1 49770U 21115AY  24058.44324989 -.00000602  00000-0 -19742-4 0  9996,2 49770  53.2157 226.7548 0001319  90.2031 269.9112 15.08840040124899,6917.88,95.438,540.658,538.833,0.0
49770.0,STARLINK-3191,PAYLOAD,2024-02-27 20:10:35,15.0884216,0.000147,53.2149,224.9694,89.4658,270.6502,-4.1966e-05,-9.56e-06,0.0,0 STARLINK-3191,1 49770U 21115AY  24058.84068929 -.00000956  00000-0 -41966-4 0  9994,2 49770  53.2149 224.9694 0001470  89.4658 270.6502 15.08842160124948,6917.874,95.437,540.756,538.722,0.0
49770.0,STARLINK-3191,PAYLOAD,2024-02-28 10:29:04,15.0883134,0.0001308,53.2166,222.2931,88.6675,271.4467,5.2013e-05,5.4e-06,0.0,0 STARLINK-3191,1 49770U 21115AY  24059.43685463  .00000540  00000-0  52013-4 0  9990,2 49770  53.2166 222.2931 0001308  88.6675 271.4467 15.08831340125030,6917.907,95.438,540.677,538.867,0.0
49770.0,STARLINK-3191,PAYLOAD,2024-02-28 20:01:22,15.08840858,0.0001374,53.2163,220.5084,87.8028,272.3122,0.00012685,1.732e-05,0.0,0 STARLINK-3191,1 49770U 21115AY  24059.83428776  .00001732  00000-0  12685-3 0  9990,2 49770  53.2163 220.5084 0001374  87.8028 272.3122 15.08840858125091,6917.878,95.438,540.693,538.792,0.0
49770.0,STARLINK-3191,PAYLOAD,2024-02-29 10:19:51,15.08839491,0.0001329,53.2164,217.8311,88.4509,271.6636,5.4803e-05,5.84e-06,0.0,0 STARLINK-3191,1 49770U 21115AY  24060.43045229  .00000584  00000-0  54803-4 0  9999,2 49770  53.2164 217.8311 0001329  88.4509 271.6636 15.08839491125188,6917.882,95.438,540.666,538.828,0.0
49770.0,STARLINK-3191,PAYLOAD,2024-02-29 15:06:00,15.08842449,0.0001424,53.2165,216.9403,81.9618,278.1536,9.5714e-05,1.236e-05,0.0,0 STARLINK-3191,1 49770U 21115AY  24060.62916879  .00001236  00000-0  95714-4 0  9999,2 49770  53.2165 216.9403 0001424  81.9618 278.1536 15.08842449125229,6917.873,95.437,540.723,538.753,0.0
49770.0,STARLINK-3191,PAYLOAD,2024-02-29 16:41:23,15.08842971,0.0001364,53.2159,216.6429,86.3251,273.7898,0.00010069,1.315e-05,0.0,0 STARLINK-3191,1 49770U 21115AY  24060.69540742  .00001315  00000-0  10069-3 0  9995,2 49770  53.2159 216.6429 0001364  86.3251 273.7898 15.08842971125235,6917.871,95.437,540.68,538.793,0.0
49770.0,STARLINK-3191,PAYLOAD,2024-03-01 14:56:47,15.08837402,0.0001461,53.2159,212.4808,86.4541,273.6619,3.09e-05,2.04e-06,0.0,0 STARLINK-3191,1 49770U 21115AY  24061.62277324  .00000204  00000-0  30900-4 0  9995,2 49770  53.2159 212.4808 0001461  86.4541 273.6619 15.08837402125379,6917.888,95.438,540.764,538.743,0.0
49770.0,STARLINK-3191,PAYLOAD,2024-03-01 16:32:10,15.08841085,0.0001468,53.2171,212.1828,91.4226,268.6934,2.1485e-05,5.4e-07,0.0,0 STARLINK-3191,1 49770U 21115AY  24061.68901112  .00000054  00000-0  21485-4 0  9991,2 49770  53.2171 212.1828 0001468  91.4226 268.6934 15.08841085125371,6917.877,95.437,540.758,538.727,0.0
49770.0,STARLINK-3191,PAYLOAD,2024-03-02 14:47:34,15.08842223,0.0001499,53.2177,208.0197,94.8638,265.2525,7.0667e-06,-1.76e-06,0.0,0 STARLINK-3191,1 49770U 21115AY  24062.61637030 -.00000176  00000-0  70667-5 0  9993,2 49770  53.2177 208.0197 0001499  94.8638 265.2525 15.08842223125529,6917.874,95.437,540.776,538.702,0.0
49770.0,STARLINK-3191,PAYLOAD,2024-03-03 09:52:12,15.08838521,0.0001467,53.2177,204.4504,96.1723,263.9437,6.3332e-05,7.2e-06,0.0,0 STARLINK-3191,1 49770U 21115AY  24063.41125067  .00000720  00000-0  63332-4 0  9998,2 49770  53.2177 204.4504 0001467  96.1723 263.9437 15.08838521125631,6917.885,95.438,540.765,538.735,0.0
49770.0,STARLINK-3191,PAYLOAD,2024-03-03 14:38:21,15.08841675,0.0001452,53.2175,203.5587,95.1294,264.9864,8.7751e-05,1.109e-05,0.0,0 STARLINK-3191,1 49770U 21115AY  24063.60996796  .00001109  00000-0  87751-4 0  9997,2 49770  53.2175 203.5587 0001452  95.1294 264.9864 15.08841675125679,6917.875,95.437,540.745,538.736,0.0
49770.0,STARLINK-3191,PAYLOAD,2024-03-03 16:13:44,15.08844622,0.0001429,53.2173,203.2609,94.4045,265.711,8.5492e-05,1.073e-05,0.0,0 STARLINK-3191,1 49770U 21115AY  24063.67620609  .00001073  00000-0  85492-4 0  9991,2 49770  53.2173 203.2609 0001429  94.4045 265.7110 15.08844622125688,6917.866,95.437,540.72,538.743,0.0
49770.0,STARLINK-3191,PAYLOAD,2024-03-04 14:29:07,15.08844325,0.0001561,53.2183,199.1035,111.4342,248.6817,7.97e-05,9.81e-06,0.0,0 STARLINK-3191,1 49770U 21115AY  24064.60356358  .00000981  00000-0  79700-4 0  9994,2 49770  53.2183 199.1035 0001561 111.4342 248.6817 15.08844325125822,6917.867,95.437,540.812,538.652,0.0
49770.0,STARLINK-3191,PAYLOAD,2024-03-04 16:04:31,15.08844131,0.0001501,53.2181,198.8051,108.2368,251.8787,7.7711e-05,9.49e-06,0.0,0 STARLINK-3191,1 49770U 21115AY  24064.66980366  .00000949  00000-0  77711-4 0  9996,2 49770  53.2181 198.8051 0001501 108.2368 251.8787 15.08844131125838,6917.868,95.437,540.771,538.694,0.0
49770.0,STARLINK-3191,PAYLOAD,2024-03-05 14:19:55,15.08835373,0.0001195,53.2176,194.6408,99.882,260.2307,-5.412e-05,-1.149e-05,0.0,0 STARLINK-3191,1 49770U 21115AY  24065.59717493 -.00001149  00000-0 -54120-4 0  9992,2 49770  53.2176 194.6408 0001195  99.8820 260.2307 15.08835373125974,6917.895,95.438,540.586,538.933,0.0
49770.0,STARLINK-3191,PAYLOAD,2024-03-05 17:30:42,15.08828438,0.0001056,53.2164,194.0439,95.0086,265.1027,-9.2639e-05,-1.761e-05,0.0,0 STARLINK-3191,1 49770U 21115AY  24065.72966054 -.00001761  00000-0 -92639-4 0  9993,2 49770  53.2164 194.0439 0001056  95.0086 265.1027 15.08828438125985,6917.916,95.438,540.511,539.05,0.0
49770.0,STARLINK-3191,PAYLOAD,2024-03-06 14:10:43,15.08837503,0.0001368,53.2182,190.1792,78.9694,281.1452,-2.4757e-05,-6.82e-06,0.0,0 STARLINK-3191,1 49770U 21115AY  24066.59077813 -.00000682  00000-0 -24757-4 0  9992,2 49770  53.2182 190.1792 0001368  78.9694 281.1452 15.08837503126125,6917.888,95.438,540.699,538.807,0.0
49770.0,STARLINK-3191,PAYLOAD,2024-03-06 15:46:06,15.08841257,0.0001327,53.2174,189.8792,65.362,294.751,-1.7882e-05,-5.72e-06,0.0,0 STARLINK-3191,1 49770U 21115AY  24066.65701662 -.00000572  00000-0 -17882-4 0  9994,2 49770  53.2174 189.8792 0001327  65.3620 294.7510 15.08841257126121,6917.877,95.437,540.66,538.824,0.0
49770.0,STARLINK-3191,PAYLOAD,2024-03-07 01:18:24,15.08850367,0.0001231,53.2173,188.0941,71.2347,288.8778,2.0587e-05,4e-07,0.0,0 STARLINK-3191,1 49770U 21115AY  24067.05444832  .00000040  00000-0  20587-4 0  9996,2 49770  53.2173 188.0941 0001231  71.2347 288.8778 15.08850367126181,6917.849,95.437,540.565,538.862,0.0
49770.0,STARLINK-3191,PAYLOAD,2024-03-07 14:01:31,15.08814979,0.0001296,53.2169,185.7186,73.1709,286.9425,0.00016325,2.309e-05,0.0,0 STARLINK-3191,1 49770U 21115AY  24067.58439353  .00002309  00000-0  16325-3 0  9990,2 49770  53.2169 185.7186 0001296  73.1709 286.9425 15.08814979126272,6917.957,95.439,540.718,538.925,0.0
